[{"OBJECT_NAME":"STARLINK-34818","OBJECT_ID":"2025-179D","EPOCH":"2026-03-09T17:06:09.215424","MEAN_MOTION":15.05647088,"ECCENTRICITY":0.00012755,"INCLINATION":97.6024,"RA_OF_ASC_NODE":113.0164,"ARG_OF_PERICENTER":89.464,"MEAN_ANOMALY":270.6733,"EPHEMERIS_TYPE":0,"CLASSIFICATION_TYPE":"U","NORAD_CAT_ID":65238,"ELEMENT_SET_NO":999,"REV_AT_EPOCH":3155,"BSTAR":6.6697902e-5,"MEAN_MOTION_DOT":9.02e-6,"MEAN_MOTION_DDOT":0},{"OBJECT_NAME":"OBJECT D","OBJECT_ID":"2018-099D","EPOCH":"2026-03-09T21:55:11.400096","MEAN_MOTION":15.0608919,"ECCENTRICITY":0.00104801,"INCLINATION":97.4323,"RA_OF_ASC_NODE":113.3477,"ARG_OF_PERICENTER":333.2621,"MEAN_ANOMALY":26.8065,"EPHEMERIS_TYPE":0,"CLASSIFICATION_TYPE":"U","NORAD_CAT_ID":43761,"ELEMENT_SET_NO":999,"REV_AT_EPOCH":39716,"BSTAR":0.0002280609,"MEAN_MOTION_DOT":3.276e-5,"MEAN_MOTION_DDOT":0}]
